{"type": "FeatureCollection", "features": [ {"type": "Feature", "properties": {"norad_id": 30447, "name": "FENGYUN 1C DEB", "group": "fengyun-1c-debris", "lat": 62.51656704792876, "lon": -153.0329590084824, "alt_km": 688.0987682857985, "timestamp": "2025-12-27T22:26:48.879700+00:00", "meta": {"OBJECT_NAME": "FENGYUN 1C DEB", "OBJECT_ID": "1999-025AFJ", "EPOCH": "2025-12-27T04:34:44.967072", "MEAN_MOTION": 14.56913743, "ECCENTRICITY": 0.0059977, "INCLINATION": 98.9707, "RA_OF_ASC_NODE": 223.8437, "ARG_OF_PERICENTER": 347.9291, "MEAN_ANOMALY": 132.8248, "EPHEMERIS_TYPE": 0, "CLASSIFICATION_TYPE": "U", "NORAD_CAT_ID": 30447, "ELEMENT_SET_NO": 999, "REV_AT_EPOCH": 98306, "BSTAR": 0.0032439284, "MEAN_MOTION_DOT": 0.00014893, "MEAN_MOTION_DDOT": 0}, "tle": {"line1": "1 30447U 99025AFJ 25361.19079823  .00014893  00000+0  32439-2 0  9996", "line2": "2 30447  98.9707 223.8437 0059977 347.9291 132.8248 14.56913743983068"}}, "geometry": {"type": "Point", "coordinates": [-153.0329590084824, 62.51656704792876]}}, {"type": "Feature", "properties": {"norad_id": 30448, "name": "FENGYUN 1C DEB", "group": "fengyun-1c-debris", "lat": 46.46729125022645, "lon": 84.4637045602824, "alt_km": 768.6670623477667, "timestamp": "2025-12-27T22:26:48.879710+00:00", "meta": {"OBJECT_NAME": "FENGYUN 1C DEB", "OBJECT_ID": "1999-025AFK", "EPOCH": "2025-12-27T05:46:41.251008", "MEAN_MOTION": 14.35281191, "ECCENTRICITY": 0.0017034, "INCLINATION": 98.8296, "RA_OF_ASC_NODE": 93.1699, "ARG_OF_PERICENTER": 325.4831, "MEAN_ANOMALY": 94.968, "EPHEMERIS_TYPE": 0, "CLASSIFICATION_TYPE": "U", "NORAD_CAT_ID": 30448, "ELEMENT_SET_NO": 999, "REV_AT_EPOCH": 97546, "BSTAR": 0.0020893, "MEAN_MOTION_DOT": 5.952e-05, "MEAN_MOTION_DDOT": 0}, "tle": {"line1": "1 30448U 99025AFK 25361.24075522  .00005952  00000+0  20893-2 0  9992", "line2": "2 30448  98.8296  93.1699 0017034 325.4831  94.9680 14.35281191975463"}}, "geometry": {"type": "Point", "coordinates": [84.4637045602824, 46.46729125022645]}}, {"type": "Feature", "properties": {"norad_id": 30450, "name": "FENGYUN 1C DEB", "group": "fengyun-1c-debris", "lat": -6.340939456830312, "lon": -165.26769624666764, "alt_km": 569.6074923863926, "timestamp": "2025-12-27T22:26:48.879720+00:00", "meta": {"OBJECT_NAME": "FENGYUN 1C DEB", "OBJECT_ID": "1999-025AFM", "EPOCH": "2025-12-27T02:03:47.251584", "MEAN_MOTION": 14.6187846, "ECCENTRICITY": 0.01898081, "INCLINATION": 98.0805, "RA_OF_ASC_NODE": 14.8061, "ARG_OF_PERICENTER": 163.1877, "MEAN_ANOMALY": 235.0259, "EPHEMERIS_TYPE": 0, "CLASSIFICATION_TYPE": "U", "NORAD_CAT_ID": 30450, "ELEMENT_SET_NO": 999, "REV_AT_EPOCH": 99752, "BSTAR": 0.0006075725, "MEAN_MOTION_DOT": 3.878e-05, "MEAN_MOTION_DDOT": 0}, "tle": {"line1": "1 30450U 99025AFM 25361.08596356  .00003878  00000+0  60757-3 0  9999", "line2": "2 30450  98.0805  14.8061 0189808 163.1877 235.0259 14.61878460997524"}}, "geometry": {"type": "Point", "coordinates": [-165.26769624666764, -6.340939456830312]}}, {"type": "Feature", "properties": {"norad_id": 30452, "name": "FENGYUN 1C DEB", "group": "fengyun-1c-debris", "lat": 5.866584246672953, "lon": -36.40433623427338, "alt_km": 649.6962741757179, "timestamp": "2025-12-27T22:26:48.879730+00:00", "meta": {"OBJECT_NAME": "FENGYUN 1C DEB", "OBJECT_ID": "1999-025AFP", "EPOCH": "2025-12-27T08:47:27.377376", "MEAN_MOTION": 14.6518505, "ECCENTRICITY": 0.0048938, "INCLINATION": 99.3204, "RA_OF_ASC_NODE": 141.9845, "ARG_OF_PERICENTER": 209.1382, "MEAN_ANOMALY": 205.5264, "EPHEMERIS_TYPE": 0, "CLASSIFICATION_TYPE": "U", "NORAD_CAT_ID": 30452, "ELEMENT_SET_NO": 999, "REV_AT_EPOCH": 98321, "BSTAR": 0.004931, "MEAN_MOTION_DOT": 0.00027044, "MEAN_MOTION_DDOT": 0}, "tle": {"line1": "1 30452U 99025AFP 25361.36628909  .00027044  00000+0  49310-2 0  9994", "line2": "2 30452  99.3204 141.9845 0048938 209.1382 205.5264 14.65185050983214"}}, "geometry": {"type": "Point", "coordinates": [-36.40433623427338, 5.866584246672953]}}, {"type": "Feature", "properties": {"norad_id": 30453, "name": "FENGYUN 1C DEB", "group": "fengyun-1c-debris", "lat": -28.883777617287272, "lon": -111.19682828352664, "alt_km": 739.7623215707254, "timestamp": "2025-12-27T22:26:48.879741+00:00", "meta": {"OBJECT_NAME": "FENGYUN 1C DEB", "OBJECT_ID": "1999-025AFQ", "EPOCH": "2025-12-27T10:16:58.395360", "MEAN_MOTION": 14.24865137, "ECCENTRICITY": 0.0116264, "INCLINATION": 98.8116, "RA_OF_ASC_NODE": 73.2033, "ARG_OF_PERICENTER": 184.1277, "MEAN_ANOMALY": 306.0861, "EPHEMERIS_TYPE": 0, "CLASSIFICATION_TYPE": "U", "NORAD_CAT_ID": 30453, "ELEMENT_SET_NO": 999, "REV_AT_EPOCH": 97443, "BSTAR": 0.0017124, "MEAN_MOTION_DOT": 4.247e-05, "MEAN_MOTION_DDOT": 0}, "tle": {"line1": "1 30453U 99025AFQ 25361.42845365  .00004247  00000+0  17124-2 0  9997", "line2": "2 30453  98.8116  73.2033 0116264 184.1277 306.0861 14.24865137974430"}}, "geometry": {"type": "Point", "coordinates": [-111.19682828352664, -28.883777617287272]}}, {"type": "Feature", "properties": {"norad_id": 30454, "name": "FENGYUN 1C DEB", "group": "fengyun-1c-debris", "lat": 53.52088622819119, "lon": -40.30031107844308, "alt_km": 846.9088541519968, "timestamp": "2025-12-27T22:26:48.879754+00:00", "meta": {"OBJECT_NAME": "FENGYUN 1C DEB", "OBJECT_ID": "1999-025AFR", "EPOCH": "2025-12-26T09:34:31.692288", "MEAN_MOTION": 14.15483487, "ECCENTRICITY": 0.0171426, "INCLINATION": 98.1346, "RA_OF_ASC_NODE": 329.4502, "ARG_OF_PERICENTER": 155.0776, "MEAN_ANOMALY": 357.0553, "EPHEMERIS_TYPE": 0, "CLASSIFICATION_TYPE": "U", "NORAD_CAT_ID": 30454, "ELEMENT_SET_NO": 999, "REV_AT_EPOCH": 96153, "BSTAR": 0.0016589, "MEAN_MOTION_DOT": 3.7e-05, "MEAN_MOTION_DDOT": 0}, "tle": {"line1": "1 30454U 99025AFR 25360.39897792  .00003700  00000+0  16589-2 0  9991", "line2": "2 30454  98.1346 329.4502 0171426 155.0776 357.0553 14.15483487961533"}}, "geometry": {"type": "Point", "coordinates": [-40.30031107844308, 53.52088622819119]}}, {"type": "Feature", "properties": {"norad_id": 30462, "name": "FENGYUN 1C DEB", "group": "fengyun-1c-debris", "lat": 16.881843535384153, "lon": -12.91161623176323, "alt_km": 971.9121755329152, "timestamp": "2025-12-27T22:26:48.879764+00:00", "meta": {"OBJECT_NAME": "FENGYUN 1C DEB", "OBJECT_ID": "1999-025AFZ", "EPOCH": "2025-12-27T12:41:35.041056", "MEAN_MOTION": 14.06274924, "ECCENTRICITY": 0.0139145, "INCLINATION": 98.8179, "RA_OF_ASC_NODE": 349.3925, "ARG_OF_PERICENTER": 208.4218, "MEAN_ANOMALY": 272.147, "EPHEMERIS_TYPE": 0, "CLASSIFICATION_TYPE": "U", "NORAD_CAT_ID": 30462, "ELEMENT_SET_NO": 999, "REV_AT_EPOCH": 97001, "BSTAR": 6.4904e-05, "MEAN_MOTION_DOT": 7.3e-07, "MEAN_MOTION_DDOT": 0}, "tle": {"line1": "1 30462U 99025AFZ 25361.52887779  .00000073  00000+0  64904-4 0  9996", "line2": "2 30462  98.8179 349.3925 0139145 208.4218 272.1470 14.06274924970011"}}, "geometry": {"type": "Point", "coordinates": [-12.91161623176323, 16.881843535384153]}}, {"type": "Feature", "properties": {"norad_id": 30464, "name": "FENGYUN 1C DEB", "group": "fengyun-1c-debris", "lat": -70.53695848023125, "lon": 78.08693648472304, "alt_km": 840.7919827466649, "timestamp": "2025-12-27T22:26:48.879774+00:00", "meta": {"OBJECT_NAME": "FENGYUN 1C DEB", "OBJECT_ID": "1999-025AGB", "EPOCH": "2025-12-27T02:40:18.176736", "MEAN_MOTION": 14.10251054, "ECCENTRICITY": 0.01087532, "INCLINATION": 98.8351, "RA_OF_ASC_NODE": 51.1662, "ARG_OF_PERICENTER": 217.6789, "MEAN_ANOMALY": 207.7143, "EPHEMERIS_TYPE": 0, "CLASSIFICATION_TYPE": "U", "NORAD_CAT_ID": 30464, "ELEMENT_SET_NO": 999, "REV_AT_EPOCH": 97266, "BSTAR": 8.2852264e-05, "MEAN_MOTION_DOT": 1.11e-06, "MEAN_MOTION_DDOT": 0}, "tle": {"line1": "1 30464U 99025AGB 25361.11132149  .00000111  00000+0  82852-4 0  9992", "line2": "2 30464  98.8351  51.1662 0108753 217.6789 207.7143 14.10251054972665"}}, "geometry": {"type": "Point", "coordinates": [78.08693648472304, -70.53695848023125]}}, {"type": "Feature", "properties": {"norad_id": 30465, "name": "FENGYUN 1C DEB", "group": "fengyun-1c-debris", "lat": -13.120256837376067, "lon": 92.54037496515828, "alt_km": 771.0979703131397, "timestamp": "2025-12-27T22:26:48.879784+00:00", "meta": {"OBJECT_NAME": "FENGYUN 1C DEB", "OBJECT_ID": "1999-025AGC", "EPOCH": "2025-12-27T12:31:55.017120", "MEAN_MOTION": 14.34020106, "ECCENTRICITY": 0.0016362, "INCLINATION": 98.8282, "RA_OF_ASC_NODE": 90.0429, "ARG_OF_PERICENTER": 343.9145, "MEAN_ANOMALY": 31.3811, "EPHEMERIS_TYPE": 0, "CLASSIFICATION_TYPE": "U", "NORAD_CAT_ID": 30465, "ELEMENT_SET_NO": 999, "REV_AT_EPOCH": 97570, "BSTAR": 0.0019873, "MEAN_MOTION_DOT": 5.516e-05, "MEAN_MOTION_DDOT": 0}, "tle": {"line1": "1 30465U 99025AGC 25361.52216455  .00005516  00000+0  19873-2 0  9996", "line2": "2 30465  98.8282  90.0429 0016362 343.9145  31.3811 14.34020106975704"}}, "geometry": {"type": "Point", "coordinates": [92.54037496515828, -13.120256837376067]}}, {"type": "Feature", "properties": {"norad_id": 30466, "name": "FENGYUN 1C DEB", "group": "fengyun-1c-debris", "lat": 27.142857285837863, "lon": 37.21430482957082, "alt_km": 758.5664623055045, "timestamp": "2025-12-27T22:26:48.879794+00:00", "meta": {"OBJECT_NAME": "FENGYUN 1C DEB", "OBJECT_ID": "1999-025AGD", "EPOCH": "2025-12-26T09:30:05.059296", "MEAN_MOTION": 14.22597795, "ECCENTRICITY": 0.01159, "INCLINATION": 98.6538, "RA_OF_ASC_NODE": 40.1803, "ARG_OF_PERICENTER": 344.538, "MEAN_ANOMALY": 82.7224, "EPHEMERIS_TYPE": 0, "CLASSIFICATION_TYPE": "U", "NORAD_CAT_ID": 30466, "ELEMENT_SET_NO": 999, "REV_AT_EPOCH": 97545, "BSTAR": 0.001014, "MEAN_MOTION_DOT": 2.384e-05, "MEAN_MOTION_DDOT": 0}, "tle": {"line1": "1 30466U 99025AGD 25360.39589189  .00002384  00000+0  10140-2 0  9996", "line2": "2 30466  98.6538  40.1803 0115900 344.5380  82.7224 14.22597795975455"}}, "geometry": {"type": "Point", "coordinates": [37.21430482957082, 27.142857285837863]}}]}